start=new Date('2022-06-13T00:00:00.000Z').valueOf();
sats=[{"MEAN_MOTION_DDOT":"0.0000000000000","CENTER_NAME":"EARTH","PERIOD":"95.592","MEAN_ANOMALY":"296.5002","BSTAR":"0.00031350000000","MEAN_ELEMENT_THEORY":"SGP4","FILE":"3493781","TLE_LINE2":"2 47592  53.0550  52.9334 0001659  63.6157 296.5002 15.06409574 74659","MEAN_MOTION":"15.06409574","APOAPSIS":"548.333","RA_OF_ASC_NODE":"52.9334","SITE":"AFETR","GP_ID":"206014652","COUNTRY_CODE":"US","DECAY_DATE":null,"EPOCH":"2022-06-12T21:23:58.794144","ELEMENT_SET_NO":"999","EPHEMERIS_TYPE":"0","ECCENTRICITY":"0.00016590","NORAD_CAT_ID":"47592","SEMIMAJOR_AXIS":"6925.319","LAUNCH_DATE":"2021-02-04","PERIAPSIS":"546.035","OBJECT_ID":"2021-009AW","TLE_LINE1":"1 47592U 21009AW  22163.89165271  .00004392  00000-0  31350-3 0  9995","RCS_SIZE":"LARGE","OBJECT_NAME":"STARLINK-1997","TIME_SYSTEM":"UTC","REV_AT_EPOCH":"7465","REF_FRAME":"TEME","INCLINATION":"53.0550","CLASSIFICATION_TYPE":"U","OBJECT_TYPE":"PAYLOAD","ARG_OF_PERICENTER":"63.6157","MEAN_MOTION_DOT":"0.00004392"},{"SEMIMAJOR_AXIS":"6925.339","TLE_LINE1":"1 47593U 21009AX  22163.86217287 -.00000143  00000-0  92970-5 0  9996","OBJECT_ID":"2021-009AX","LAUNCH_DATE":"2021-02-04","PERIAPSIS":"545.773","ECCENTRICITY":"0.00020660","EPHEMERIS_TYPE":"0","NORAD_CAT_ID":"47593","ARG_OF_PERICENTER":"63.3141","MEAN_MOTION_DOT":"-0.00000143","CLASSIFICATION_TYPE":"U","OBJECT_TYPE":"PAYLOAD","RCS_SIZE":"LARGE","OBJECT_NAME":"STARLINK-1998","INCLINATION":"53.0552","REV_AT_EPOCH":"7465","TIME_SYSTEM":"UTC","REF_FRAME":"TEME","MEAN_MOTION":"15.06403138","APOAPSIS":"548.635","RA_OF_ASC_NODE":"53.0488","PERIOD":"95.592","MEAN_ANOMALY":"296.8060","BSTAR":"0.00000929700000","MEAN_MOTION_DDOT":"0.0000000000000","CENTER_NAME":"EARTH","TLE_LINE2":"2 47593  53.0552  53.0488 0002066  63.3141 296.8060 15.06403138 74654","MEAN_ELEMENT_THEORY":"SGP4","FILE":"3493781","DECAY_DATE":null,"ELEMENT_SET_NO":"999","EPOCH":"2022-06-12T20:41:31.735968","SITE":"AFETR","COUNTRY_CODE":"US","GP_ID":"206014898"},{"ECCENTRICITY":"0.00020460","EPHEMERIS_TYPE":"0","NORAD_CAT_ID":"47594","SEMIMAJOR_AXIS":"6925.339","TLE_LINE1":"1 47594U 21009AY  22163.89534426  .00003508  00000-0  25426-3 0  9994","OBJECT_ID":"2021-009AY","LAUNCH_DATE":"2021-02-04","PERIAPSIS":"545.787","RCS_SIZE":"LARGE","OBJECT_NAME":"STARLINK-1999","INCLINATION":"53.0560","REV_AT_EPOCH":"7465","TIME_SYSTEM":"UTC","REF_FRAME":"TEME","ARG_OF_PERICENTER":"65.4460","MEAN_MOTION_DOT":"0.00003508","CLASSIFICATION_TYPE":"U","OBJECT_TYPE":"PAYLOAD","MEAN_ANOMALY":"294.6742","PERIOD":"95.592","BSTAR":"0.00025426000000","MEAN_MOTION_DDOT":"0.0000000000000","CENTER_NAME":"EARTH","TLE_LINE2":"2 47594  53.0560  52.9213 0002046  65.4460 294.6742 15.06403247 74657","MEAN_ELEMENT_THEORY":"SGP4","FILE":"3493781","MEAN_MOTION":"15.06403247","APOAPSIS":"548.621","RA_OF_ASC_NODE":"52.9213","SITE":"AFETR","COUNTRY_CODE":"US","GP_ID":"206013652","DECAY_DATE":null,"EPOCH":"2022-06-12T21:29:17.744064","ELEMENT_SET_NO":"999"},{"ARG_OF_PERICENTER":"70.1588","MEAN_MOTION_DOT":"0.00000424","CLASSIFICATION_TYPE":"U","OBJECT_TYPE":"PAYLOAD","INCLINATION":"53.0543","TIME_SYSTEM":"UTC","REV_AT_EPOCH":"7525","REF_FRAME":"TEME","RCS_SIZE":"LARGE","OBJECT_NAME":"STARLINK-2000","TLE_LINE1":"1 47595U 21009AZ  22163.88060241  .00000424  00000-0  47372-4 0  9992","LAUNCH_DATE":"2021-02-04","PERIAPSIS":"546.011","OBJECT_ID":"2021-009AZ","SEMIMAJOR_AXIS":"6925.340","NORAD_CAT_ID":"47595","ECCENTRICITY":"0.00017230","EPHEMERIS_TYPE":"0","ELEMENT_SET_NO":"999","EPOCH":"2022-06-12T21:08:04.048224","DECAY_DATE":null,"COUNTRY_CODE":"US","GP_ID":"205988496","SITE":"AFETR","APOAPSIS":"548.398","RA_OF_ASC_NODE":"52.9761","MEAN_MOTION":"15.06402903","TLE_LINE2":"2 47595  53.0543  52.9761 0001723  70.1588 289.9586 15.06402903 75250","MEAN_ELEMENT_THEORY":"SGP4","FILE":"3493590","PERIOD":"95.592","MEAN_ANOMALY":"289.9586","BSTAR":"0.00004737200000","MEAN_MOTION_DDOT":"0.0000000000000","CENTER_NAME":"EARTH"},{"GP_ID":"206015153","COUNTRY_CODE":"US","SITE":"AFETR","ELEMENT_SET_NO":"999","EPOCH":"2022-06-12T21:13:22.249056","DECAY_DATE":null,"MEAN_ELEMENT_THEORY":"SGP4","FILE":"3493781","TLE_LINE2":"2 47596  53.0554  52.9579 0001845  64.3651 295.7529 15.06404653 74650","MEAN_MOTION_DDOT":"0.0000000000000","CENTER_NAME":"EARTH","MEAN_ANOMALY":"295.7529","PERIOD":"95.592","BSTAR":"0.00007658500000","APOAPSIS":"548.477","RA_OF_ASC_NODE":"52.9579","MEAN_MOTION":"15.06404653","TIME_SYSTEM":"UTC","REV_AT_EPOCH":"7465","REF_FRAME":"TEME","INCLINATION":"53.0554","RCS_SIZE":"LARGE","OBJECT_NAME":"STARLINK-2001","OBJECT_TYPE":"PAYLOAD","CLASSIFICATION_TYPE":"U","ARG_OF_PERICENTER":"64.3651","MEAN_MOTION_DOT":"0.00000859","NORAD_CAT_ID":"47596","EPHEMERIS_TYPE":"0","ECCENTRICITY":"0.00018450","LAUNCH_DATE":"2021-02-04","OBJECT_ID":"2021-009BA","PERIAPSIS":"545.922","TLE_LINE1":"1 47596U 21009BA  22163.88428529  .00000859  00000-0  76585-4 0  9990","SEMIMAJOR_AXIS":"6925.334"},{"MEAN_MOTION":"15.06400939","APOAPSIS":"548.686","RA_OF_ASC_NODE":"52.9937","MEAN_MOTION_DDOT":"0.0000000000000","CENTER_NAME":"EARTH","BSTAR":"0.00000450960000","PERIOD":"95.592","MEAN_ANOMALY":"298.5858","MEAN_ELEMENT_THEORY":"SGP4","FILE":"3493591","TLE_LINE2":"2 47597  53.0547  52.9937 0002130  61.5346 298.5858 15.06400939 75255","DECAY_DATE":null,"ELEMENT_SET_NO":"999","EPOCH":"2022-06-12T21:02:45.792096","SITE":"AFETR","GP_ID":"205989010","COUNTRY_CODE":"US","SEMIMAJOR_AXIS":"6925.346","LAUNCH_DATE":"2021-02-04","PERIAPSIS":"545.736","OBJECT_ID":"2021-009BB","TLE_LINE1":"1 47597U 21009BB  22163.87691889 -.00000215  00000-0  45096-5 0  9992","EPHEMERIS_TYPE":"0","ECCENTRICITY":"0.00021300","NORAD_CAT_ID":"47597","OBJECT_TYPE":"PAYLOAD","CLASSIFICATION_TYPE":"U","ARG_OF_PERICENTER":"61.5346","MEAN_MOTION_DOT":"-0.00000215","RCS_SIZE":"LARGE","OBJECT_NAME":"STARLINK-2002","TIME_SYSTEM":"UTC","REV_AT_EPOCH":"7525","REF_FRAME":"TEME","INCLINATION":"53.0547"},{"RA_OF_ASC_NODE":"22.9530","APOAPSIS":"548.407","MEAN_MOTION":"15.06395790","TLE_LINE2":"2 47598  53.0564  22.9530 0001705  70.9101 289.2072 15.06395790 75085","FILE":"3493781","MEAN_ELEMENT_THEORY":"SGP4","BSTAR":"-0.00000210050000","PERIOD":"95.592","MEAN_ANOMALY":"289.2072","CENTER_NAME":"EARTH","MEAN_MOTION_DDOT":"0.0000000000000","ELEMENT_SET_NO":"999","EPOCH":"2022-06-12T21:17:21.046560","DECAY_DATE":null,"GP_ID":"206014153","COUNTRY_CODE":"US","SITE":"AFETR","TLE_LINE1":"1 47598U 21009BC  22163.88704915 -.00000313  00000-0 -21005-5 0  9993","LAUNCH_DATE":"2021-02-04","PERIAPSIS":"546.046","OBJECT_ID":"2021-009BC","SEMIMAJOR_AXIS":"6925.361","NORAD_CAT_ID":"47598","ECCENTRICITY":"0.00017050","EPHEMERIS_TYPE":"0","MEAN_MOTION_DOT":"-0.00000313","ARG_OF_PERICENTER":"70.9101","CLASSIFICATION_TYPE":"U","OBJECT_TYPE":"PAYLOAD","INCLINATION":"53.0564","REF_FRAME":"TEME","REV_AT_EPOCH":"7508","TIME_SYSTEM":"UTC","OBJECT_NAME":"STARLINK-2003","RCS_SIZE":"LARGE"},{"NORAD_CAT_ID":"47599","ECCENTRICITY":"0.00017630","EPHEMERIS_TYPE":"0","TLE_LINE1":"1 47599U 21009BD  22163.87691025  .00001337  00000-0  10866-3 0  9996","LAUNCH_DATE":"2021-02-04","PERIAPSIS":"545.978","OBJECT_ID":"2021-009BD","SEMIMAJOR_AXIS":"6925.334","INCLINATION":"53.0563","REF_FRAME":"TEME","REV_AT_EPOCH":"7521","TIME_SYSTEM":"UTC","OBJECT_NAME":"STARLINK-2004","RCS_SIZE":"LARGE","MEAN_MOTION_DOT":"0.00001337","ARG_OF_PERICENTER":"68.1613","OBJECT_TYPE":"PAYLOAD","CLASSIFICATION_TYPE":"U","TLE_LINE2":"2 47599  53.0563  12.9986 0001763  68.1613 291.9564 15.06404816 75211","FILE":"3493781","MEAN_ELEMENT_THEORY":"SGP4","BSTAR":"0.00010866000000","PERIOD":"95.592","MEAN_ANOMALY":"291.9564","CENTER_NAME":"EARTH","MEAN_MOTION_DDOT":"0.0000000000000","RA_OF_ASC_NODE":"12.9986","APOAPSIS":"548.420","MEAN_MOTION":"15.06404816","COUNTRY_CODE":"US","GP_ID":"206014403","SITE":"AFETR","ELEMENT_SET_NO":"999","EPOCH":"2022-06-12T21:02:45.045600","DECAY_DATE":null},{"CLASSIFICATION_TYPE":"U","OBJECT_TYPE":"PAYLOAD","MEAN_MOTION_DOT":"0.00002389","ARG_OF_PERICENTER":"62.9135","OBJECT_NAME":"STARLINK-2005","RCS_SIZE":"LARGE","REF_FRAME":"TEME","TIME_SYSTEM":"UTC","REV_AT_EPOCH":"7522","INCLINATION":"53.0555","SEMIMAJOR_AXIS":"6925.350","LAUNCH_DATE":"2021-02-04","PERIAPSIS":"546.385","OBJECT_ID":"2021-009BE","TLE_LINE1":"1 47600U 21009BE  22163.90270681  .00002389  00000-0  17920-3 0  9990","EPHEMERIS_TYPE":"0","ECCENTRICITY":"0.00011990","NORAD_CAT_ID":"47600","DECAY_DATE":null,"EPOCH":"2022-06-12T21:39:53.868384","ELEMENT_SET_NO":"999","SITE":"AFETR","COUNTRY_CODE":"US","GP_ID":"206014653","MEAN_MOTION":"15.06399397","RA_OF_ASC_NODE":"12.8480","APOAPSIS":"548.046","CENTER_NAME":"EARTH","MEAN_MOTION_DDOT":"0.0000000000000","PERIOD":"95.592","BSTAR":"0.00017920000000","MEAN_ANOMALY":"297.1977","FILE":"3493781","MEAN_ELEMENT_THEORY":"SGP4","TLE_LINE2":"2 47600  53.0555  12.8480 0001199  62.9135 297.1977 15.06399397 75221"},{"OBJECT_TYPE":"PAYLOAD","CLASSIFICATION_TYPE":"U","ARG_OF_PERICENTER":"62.6473","MEAN_MOTION_DOT":"0.00000516","RCS_SIZE":"LARGE","OBJECT_NAME":"STARLINK-2006","REV_AT_EPOCH":"7521","TIME_SYSTEM":"UTC","REF_FRAME":"TEME","INCLINATION":"53.0559","SEMIMAJOR_AXIS":"6925.356","OBJECT_ID":"2021-009BF","LAUNCH_DATE":"2021-02-04","PERIAPSIS":"546.177","TLE_LINE1":"1 47601U 21009BF  22163.88059998  .00000516  00000-0  53532-4 0  9994","EPHEMERIS_TYPE":"0","ECCENTRICITY":"0.00015080","NORAD_CAT_ID":"47601","DECAY_DATE":null,"ELEMENT_SET_NO":"999","EPOCH":"2022-06-12T21:08:03.838272","SITE":"AFETR","GP_ID":"206014899","COUNTRY_CODE":"US","MEAN_MOTION":"15.06397417","APOAPSIS":"548.266","RA_OF_ASC_NODE":"12.9857","MEAN_MOTION_DDOT":"0.0000000000000","CENTER_NAME":"EARTH","PERIOD":"95.592","BSTAR":"0.00005353200000","MEAN_ANOMALY":"297.4669","MEAN_ELEMENT_THEORY":"SGP4","FILE":"3493781","TLE_LINE2":"2 47601  53.0559  12.9857 0001508  62.6473 297.4669 15.06397417 75212"}];
